OBJECT_NAME,OBJECT_ID,EPOCH,MEAN_MOTION,ECCENTRICITY,INCLINATION,RA_OF_ASC_NODE,ARG_OF_PERICENTER,MEAN_ANOMALY,EPHEMERIS_TYPE,CLASSIFICATION_TYPE,NORAD_CAT_ID,ELEMENT_SET_NO,REV_AT_EPOCH,BSTAR,MEAN_MOTION_DOT,MEAN_MOTION_DDOT
HODOYOSHI-4,2014-033B,2026-07-19T20:18:57.117888,14.88193059,.0023038,97.5462,24.0948,193.8455,166.2134,0,U,40011,999,65366,.405E-4,.323E-5,0
DEIMOS-2,2014-033D,2026-07-19T19:19:58.825344,14.93805073,.0001444,97.5780,74.1419,106.6103,253.5276,0,U,40013,999,64259,.12139E-3,.1233E-4,0
HODOYOSHI-3,2014-033F,2026-07-19T17:18:22.730688,14.85442279,.0031417,97.6452,2.4590,246.2924,113.4994,0,U,40015,999,65245,.58668E-4,.457E-5,0
SPOT 7,2014-034A,2026-07-19T20:24:46.789056,14.60982682,.000163,98.0607,262.4980,95.2924,264.8463,0,U,40053,999,64190,.1691E-4,.38E-6,0
SKYSAT-B,2014-037D,2026-07-19T20:55:40.990080,14.88098127,.000593,98.3857,161.7057,158.4103,201.7363,0,U,40072,999,65082,.68683E-4,.57E-5,0
WORLDVIEW-3 (WV-3),2014-048A,2026-07-19T20:18:37.555200,14.85068077,.0001644,97.8553,275.2267,149.1085,211.0226,0,U,40115,999,64675,.49378E-4,.368E-5,0
GAOFEN-2,2014-049A,2026-07-19T21:05:21.839136,14.80931491,.0008557,98.0089,265.0522,121.8390,238.3657,0,U,40118,999,64407,.81575E-4,.578E-5,0
YAOGAN-21,2014-053A,2026-07-19T20:53:40.691904,15.26792636,.000718,97.1455,239.7095,351.9054,8.2068,0,U,40143,999,65994,.94865E-4,.243E-4,0
YAOGAN-22,2014-063A,2026-07-19T19:28:40.589760,13.15531736,.0006903,100.7769,352.6324,115.6728,244.5096,0,U,40275,999,56410,.19096E-4,-.4E-6,0
ASNARO,2014-070A,2026-07-19T19:40:52.096224,15.19416072,.0004602,97.3433,276.0560,77.0689,283.1059,0,U,40298,999,64896,.20525E-3,.4281E-4,0
YAOGAN-24,2014-072A,2026-07-19T19:44:12.273792,14.76123577,.0014956,98.1536,338.4393,155.0993,205.0941,0,U,40310,999,62853,.13788E-3,.9E-5,0
CBERS 4,2014-079A,2026-07-19T20:48:05.591232,14.35515886,.0000608,98.3510,256.6700,64.4895,295.6354,0,U,40336,999,60864,-.59992E-4,-.215E-5,0
YAOGAN-26,2014-088A,2026-07-19T20:13:11.523072,15.48557672,.0001143,97.0659,200.3161,306.3685,53.7461,0,U,40362,999,64275,.14981E-3,.7893E-4,0
SMAP,2015-003A,2026-07-19T19:57:52.596000,14.63391249,.000163,98.1285,207.4655,93.3256,266.8132,0,U,40376,999,61239,.42296E-4,.172E-5,0
KOMPSAT-3A,2015-014A,2026-07-19T20:54:53.803584,15.55618142,.0055624,97.6904,194.6659,59.1272,301.5436,0,U,40536,999,62689,.28718E-3,.21024E-3,0
SENTINEL-2A,2015-028A,2026-07-19T19:15:03.036672,14.30815437,.0001296,98.5670,275.1890,95.3383,264.7948,0,U,40697,999,57839,.41013E-4,.64E-6,0
GAOFEN-8,2015-030A,2026-07-19T19:51:16.876224,15.47053802,.0009811,97.6898,36.1830,81.0345,279.2014,0,U,40701,999,61649,.24651E-3,.12395E-3,0
CARBONITE 1 (CBNT-1),2015-032D,2026-07-19T19:48:15.494112,14.83673529,.0014247,97.6528,17.5291,181.4157,178.7019,0,U,40718,999,59418,.39662E-4,.277E-5,0
YAOGAN-27,2015-040A,2026-07-19T20:52:07.996800,13.16070964,.0008707,100.1177,185.8368,135.0938,225.0881,0,U,40878,999,52196,-.8404E-4,-.74E-6,0
GAOFEN-9 01,2015-047A,2026-07-19T20:32:41.504352,14.82939836,.0028137,97.6263,235.0648,35.7730,324.5362,0,U,40894,999,58503,.56264E-4,.408E-5,0
YAOGAN-28,2015-064A,2026-07-19T19:29:56.335776,15.27793173,.0011991,97.3117,338.4254,78.9401,281.3186,0,U,41026,999,59566,.12783E-3,.3403E-4,0
YAOGAN-29,2015-069A,2026-07-19T19:58:11.970336,14.83107260,.0000277,98.0016,229.5147,3.4151,356.7064,0,U,41038,999,57546,.1254E-4,.48E-6,0
KENT RIDGE 1,2015-077B,2026-07-19T20:07:56.265024,15.23298386,.000827,14.9808,23.1228,340.3146,19.6856,0,U,41167,999,58608,.63189E-4,.2305E-4,0
GAOFEN-4,2015-083A,2026-07-19T13:40:46.368768,1.00271085,.00041765,0.4391,83.8465,122.3664,42.0354,0,U,41194,999,3885,0,-.339E-5,0
JASON-3,2016-002A,2026-07-19T20:34:15.306240,12.87628847,.0008139,66.0416,57.1506,270.4969,89.5117,0,U,41240,999,49145,.76673E-5,-.6E-6,0
SENTINEL-3A,2016-011A,2026-07-19T19:50:47.386176,14.26740566,.0001317,98.6233,267.7391,89.0426,271.0905,0,U,41335,999,54271,.33164E-4,.37E-6,0
ZIYUAN 3-02 (ZY 3-02),2016-033A,2026-07-19T21:06:04.615776,15.21460429,.0014584,97.3820,276.0252,168.8379,191.3183,0,U,41556,999,56295,.12838E-3,.2823E-4,0
CARTOSAT-2C,2016-040A,2026-07-19T20:39:41.758272,15.19280455,.0009123,97.4458,260.3860,31.0257,329.1515,0,U,41599,999,55867,.50139E-4,.99E-5,0
SKYSAT-C1,2016-040C,2026-07-19T20:13:41.424384,15.36793049,.0000566,96.9552,230.8008,200.2206,159.9017,0,U,41601,999,56288,.13448E-3,.476E-4,0
LAPAN-A3,2016-040E,2026-07-19T21:20:07.037376,15.33294735,.0008309,97.1508,195.9673,255.4021,104.6301,0,U,41603,999,55982,.54725E-4,.1687E-4,0
GAOFEN-3,2016-049A,2026-07-19T19:55:43.166208,14.42218296,.0001783,98.4020,208.1242,83.3604,276.7789,0,U,41727,999,52335,-.37431E-4,-.167E-5,0
